IRIDIUM 119             
1 42959U 17061E   26008.28702224  .00000016  00000+0 -15011-5 0  9997
2 42959  86.3961  92.1202 0002029 104.8411 255.3009 14.34217537431898
IRIDIUM 107             
1 42960U 17061F   26007.95720715 -.00000375  00000+0 -14085-3 0  9994
2 42960  86.3963  92.2784 0002399  98.1168 262.0300 14.34216650431852
IRIDIUM 132             
1 42961U 17061G   26008.31239297  .00000114  00000+0  33488-4 0  9994
2 42961  86.3961  92.1107 0002220  97.9977 262.1471 14.34217628431909
IRIDIUM 136             
1 42962U 17061H   26008.27433727  .00000254  00000+0  83799-4 0  9999
2 42962  86.3962  92.1326 0002155  99.6730 260.4709 14.34218142431915
IRIDIUM 139             
1 42963U 17061J   26008.28068033  .00000040  00000+0  73475-5 0  9999
2 42963  86.3964  92.1898 0002326  97.9297 262.2163 14.34216622431927
IRIDIUM 125             
1 42964U 17061K   26008.26798982  .00000381  00000+0  12915-3 0  9999
2 42964  86.3965  92.2527 0002446 107.7130 252.4333 14.34215985431930
IRIDIUM 135             
1 43070U 17083A   26008.31188773  .00000205  00000+0  66244-4 0  9999
2 43070  86.3951  28.8304 0002143  90.3124 269.8318 14.34216994421234
IRIDIUM 138             
1 43071U 17083B   26008.12795352  .00000019  00000+0 -38872-6 0  9998
2 43071  86.3961  28.5779 0002060 101.8699 258.2728 14.34217560421194
